{
  "type": "FeatureCollection",
  "features": [
    {
      "type": "Feature",
      "properties": {},
      "geometry": {
        "type": "Polygon",
        "coordinates": [
          [
            [
              -88.2025119,
              30.8140049
            ],
            [
              -87.9707774,
              30.8159852
            ],
            [
              -87.7321255,
              30.8140049
            ],
            [
              -87.72636096171252,
              30.209113802048577
            ],
            [
              -88.20135895464287,
              30.209113802048577
            ],
            [
              -88.2025119,
              30.8140049
            ]
          ]
        ]
      }
    }
  ]
}